ISS (ZARYA)             
1 25544U 98067A   25085.14041700  .00034238  00000+0  60364-3 0  9998
2 25544  51.6371 358.3501 0003684  51.9083 308.2238 15.50074167502286
CSS (TIANHE)            
1 48274U 21035A   25084.13198722  .00057788  00000+0  63946-3 0  9993
2 48274  41.4650 172.4670 0005007  86.0324 274.1087 15.62102426223015
ISS (NAUKA)             
1 49044U 21066A   25084.81806236  .00032608  00000+0  57583-3 0  9998
2 49044  51.6371 359.9472 0003683  51.0241 309.1076 15.50052106501533
FREGAT DEB              
1 49271U 11037PF  25084.85006975  .00006042  00000+0  14044-1 0  9999
2 49271  51.6309 251.0929 0893129  12.5492 349.6099 12.28231445169662
CSS (WENTIAN)           
1 53239U 22085A   25084.13198722  .00057788  00000+0  63946-3 0  9996
2 53239  41.4650 172.4670 0005007  86.0324 274.1087 15.62102426214944
CSS (MENGTIAN)          
1 54216U 22143A   25084.13198722  .00057788  00000+0  63946-3 0  9997
2 54216  41.4650 172.4670 0005007  86.0324 274.1087 15.62102426135885
CYGNUS NG-21            
1 60378U 24139A   25084.81806236  .00032608  00000+0  57583-3 0  9995
2 60378  51.6371 359.9472 0003683  51.0241 309.1076 15.50052106501536
SOYUZ-MS 26             
1 61043U 24162A   25084.81806236  .00032608  00000+0  57583-3 0  9991
2 61043  51.6371 359.9472 0003683  51.0241 309.1076 15.50052106501536
SHENZHOU-19 (SZ-19)     
1 61683U 24194A   25084.13198722  .00057788  00000+0  63946-3 0  9991
2 61683  41.4650 172.4670 0005007  86.0324 274.1087 15.62102426222912
TIANZHOU-8              
1 61983U 24211A   25084.13198722  .00057788  00000+0  63946-3 0  9994
2 61983  41.4650 172.4670 0005007  86.0324 274.1087 15.62102426 16297
PROGRESS-MS 29          
1 62030U 24215A   25084.81806236  .00032608  00000+0  57583-3 0  9997
2 62030  51.6371 359.9472 0003683  51.0241 309.1076 15.50052106501533
1998-067XC              
1 62296U 98067XC  25084.75172431  .01146144  67833-3  21854-2 0  9997
2 62296  51.6205 347.4126 0004275 207.5055 152.5729 16.00113412 16675
YOMOGI                  
1 62298U 98067XE  25084.96976820  .01447595  12713-2  21675-2 0  9997
2 62298  51.6166 345.8503 0005308 216.4755 143.5895 16.04352442 16719
ISS DEB                 
1 62376U 98067XG  25084.75131457  .00729680  22502-3  22580-2 0  9991
2 62376  51.6253 349.7117 0004083 186.5082 173.5872 15.91104541 15038
PROGRESS-MS 30          
1 63129U 25041B   25084.81806236  .00032608  00000+0  57583-3 0  9995
2 63129  51.6371 359.9472 0003683  51.0241 309.1076 15.50052106  3888
CREW DRAGON 10          
1 63204U 25049A   25084.81806236  .00032608  00000+0  57583-3 0  9997
2 63204  51.6371 359.9472 0003683  51.0241 309.1076 15.50052106501537
